OBJECT_NAME,OBJECT_ID,EPOCH,MEAN_MOTION,ECCENTRICITY,INCLINATION,RA_OF_ASC_NODE,ARG_OF_PERICENTER,MEAN_ANOMALY,EPHEMERIS_TYPE,CLASSIFICATION_TYPE,NORAD_CAT_ID,ELEMENT_SET_NO,REV_AT_EPOCH,BSTAR,MEAN_MOTION_DOT,MEAN_MOTION_DDOT
BEIDOU-2 IGSO-4,2011-038A,2026-05-31T12:27:58.883328,1.00288616,.015867,54.5976,165.8209,231.3955,131.4280,0,U,37763,999,5448,0,.47E-6,0
ASTRA 1N,2011-041A,2026-06-05T03:20:26.747808,1.00271905,.0006455,0.0751,30.2242,59.8586,232.8192,0,U,37775,999,4440,0,.132E-5,0
BSAT-3C (JCSAT-110R),2011-041B,2026-06-04T17:05:15.492768,1.00269799,.0000589,0.0259,309.4229,193.3274,116.6774,0,U,37776,999,5034,0,-.338E-5,0
PAKSAT-1R,2011-042A,2026-06-05T03:25:48.732960,1.00273634,.0003459,0.6572,84.7204,343.0087,275.2774,0,U,37779,999,5435,0,.166E-5,0
SES-2,2011-049A,2026-06-05T02:50:12.957792,1.00270363,.0002981,0.0370,112.6301,322.1999,134.2799,0,U,37809,999,5384,0,-.183E-5,0
ARABSAT-5C,2011-049B,2026-06-05T03:20:41.725248,1.00272502,.0003209,0.0563,22.0783,69.5607,232.0988,0,U,37810,999,5391,0,.136E-5,0
EUTELSAT 7 WEST A,2011-051A,2026-06-04T23:47:35.168928,1.00271133,.0004353,0.0611,346.0207,101.3038,155.6898,0,U,37816,999,5375,0,-.48E-6,0
QUETZSAT 1,2011-054A,2026-06-05T03:59:28.694976,1.00270512,.0002889,0.0397,63.3554,14.7017,158.4157,0,U,37826,999,4975,0,-.229E-5,0
INTELSAT 18 (IS-18),2011-056A,2026-06-05T02:23:41.818848,1.00271729,.0002243,0.0134,300.3596,145.8731,23.2304,0,U,37834,999,5369,0,.65E-6,0
EUTELSAT 16A,2011-057A,2026-06-05T03:20:38.766048,1.00269593,.0005846,0.0429,343.5069,92.8135,243.4151,0,U,37836,999,721,0,.116E-5,0
VIASAT-1,2011-059A,2026-06-05T00:45:30.002400,1.00272074,.0002448,0.0176,320.3026,114.7070,74.7418,0,U,37843,999,4720,0,-.12E-6,0
ASIASAT 7,2011-069A,2026-06-05T00:19:49.824768,1.00271609,.0001697,0.0190,313.1104,110.6962,300.1341,0,U,37933,999,4473,0,-.322E-5,0
BEIDOU-2 IGSO-5,2011-073A,2026-06-04T15:33:36.880128,1.00276059,.01133062,47.7023,271.7026,221.7104,84.8230,0,U,37948,999,5300,0,-.161E-5,0
LUCH-5A,2011-074B,2026-06-05T02:19:57.178848,1.00269911,.0002482,8.7230,73.9855,9.1974,12.3602,0,U,37951,999,5293,0,-.39E-6,0
NIGCOMSAT 1R,2011-077A,2026-06-05T03:27:11.102400,1.00270711,.0002746,0.0263,211.5228,144.9799,351.3650,0,U,38014,999,5283,0,.157E-5,0
WGS F4 (USA 233),2012-003A,2026-06-04T21:36:21.822912,1.00270873,.0000174,0.0168,336.4588,330.3130,359.0853,0,U,38070,999,4402,0,0,0
SES-4,2012-007A,2026-06-04T10:02:04.085376,1.00271340,.00024364,0.0283,31.0711,50.9462,299.3641,0,U,38087,999,5209,0,-.156E-5,0
BEIDOU-2 G5,2012-008A,2026-06-05T03:31:48.160416,1.00269511,.0009613,3.5438,69.7718,276.3406,19.1300,0,U,38091,999,5224,0,.69E-6,0
MUOS-1,2012-009A,2026-06-05T03:57:14.660928,1.00270872,.005891,5.4525,47.1655,0.8713,164.9199,0,U,38093,999,5232,0,-.117E-5,0
INTELSAT 22 (IS-22),2012-011A,2026-06-05T01:52:59.763072,1.00273175,.0001603,0.0117,41.3875,20.0852,292.3771,0,U,38098,999,706,0,-.47E-6,0
APSTAR-7,2012-013A,2026-06-05T03:36:55.168992,1.00271537,.0003012,0.0215,50.9502,31.9870,301.3799,0,U,38107,999,5168,0,-.89E-6,0
YAHSAT 1B,2012-016A,2026-06-05T00:03:13.916160,1.00271155,.0002774,0.0905,91.0834,2.7285,208.0398,0,U,38245,999,4548,0,.139E-5,0
AEHF-2 (USA 235),2012-019A,2026-06-05T01:27:34.244064,1.00270638,.0002302,6.6237,57.5779,6.4666,194.8426,0,U,38254,999,686,0,-.125E-5,0
JCSAT-13,2012-023A,2026-06-04T17:34:21.215136,1.00270076,.0003007,0.0332,72.2498,20.0683,188.4436,0,U,38331,999,5141,0,-.344E-5,0
VINASAT-2,2012-023B,2026-06-04T22:44:34.861344,1.00270216,.0002636,0.0141,355.1455,93.9674,277.2683,0,U,38332,999,4653,0,-.317E-5,0
NIMIQ 6,2012-026A,2026-06-05T01:06:22.860288,1.00272659,.000292,0.0096,332.3393,100.5047,106.1356,0,U,38342,999,5029,0,-.162E-5,0
ZHONGXING-2A,2012-028A,2026-06-05T04:27:21.852576,1.00272293,.0003653,1.4233,84.0383,31.2974,303.3656,0,U,38352,999,5117,0,-.281E-5,0
INTELSAT 19 (IS-19),2012-030A,2026-06-04T22:10:51.392352,1.00272096,.0003207,0.0187,344.8550,95.6741,311.5561,0,U,38356,999,5032,0,-.44E-6,0
ECHOSTAR 17,2012-035A,2026-06-04T14:41:57.048576,1.00270627,.0001986,0.0182,346.4449,87.1972,292.8078,0,U,38551,999,5093,0,0,0
METEOSAT-10 (MSG-3),2012-035B,2026-06-05T01:32:24.237888,1.00275627,.0001804,4.6426,61.0733,337.4560,238.2428,0,U,38552,999,5073,0,.6E-7,0
SES-5,2012-036A,2026-06-04T23:51:04.834080,1.00271985,.0002151,0.0499,310.6232,122.2129,183.3480,0,U,38652,999,4433,0,.46E-6,0
INTELSAT 20 (IS-20),2012-043A,2026-06-04T19:57:21.472992,1.00271341,.0001553,0.0098,81.5762,96.2799,83.2508,0,U,38740,999,5062,0,-.12E-6,0
