BEIDOU-2 IGSO-4         
1 37763U 11038A   26151.51943152  .00000047  00000+0  00000+0 0  9993
2 37763  54.5976 165.8209 0158670 231.3955 131.4280  1.00288616 54482
ASTRA 1N                
1 37775U 11041A   26156.13919847  .00000132  00000+0  00000+0 0  9992
2 37775   0.0751  30.2242 0006455  59.8586 232.8192  1.00271905 44402
BSAT-3C (JCSAT-110R)    
1 37776U 11041B   26155.71198487 -.00000338  00000+0  00000+0 0  9994
2 37776   0.0259 309.4229 0000589 193.3274 116.6774  1.00269799 50345
PAKSAT-1R               
1 37779U 11042A   26156.14292515  .00000166  00000+0  00000+0 0  9991
2 37779   0.6572  84.7204 0003459 343.0087 275.2774  1.00273634 54353
SES-2                   
1 37809U 11049A   26156.11820553 -.00000183  00000+0  00000+0 0  9998
2 37809   0.0370 112.6301 0002981 322.1999 134.2799  1.00270363 53845
ARABSAT-5C              
1 37810U 11049B   26156.13937182  .00000136  00000+0  00000+0 0  9996
2 37810   0.0563  22.0783 0003209  69.5607 232.0988  1.00272502 53913
EUTELSAT 7 WEST A       
1 37816U 11051A   26155.99137927 -.00000048  00000+0  00000+0 0  9990
2 37816   0.0611 346.0207 0004353 101.3038 155.6898  1.00271133 53758
QUETZSAT 1              
1 37826U 11054A   26156.16630434 -.00000229  00000+0  00000+0 0  9996
2 37826   0.0397  63.3554 0002889  14.7017 158.4157  1.00270512 49754
INTELSAT 18 (IS-18)     
1 37834U 11056A   26156.09978957  .00000065  00000+0  00000+0 0  9991
2 37834   0.0134 300.3596 0002243 145.8731  23.2304  1.00271729 53697
EUTELSAT 16A            
1 37836U 11057A   26156.13933757  .00000116  00000+0  00000+0 0  9995
2 37836   0.0429 343.5069 0005846  92.8135 243.4151  1.00269593  7210
VIASAT-1                
1 37843U 11059A   26156.03159725 -.00000012  00000+0  00000+0 0  9995
2 37843   0.0176 320.3026 0002448 114.7070  74.7418  1.00272074 47202
ASIASAT 7               
1 37933U 11069A   26156.01377112 -.00000322  00000+0  00000+0 0  9990
2 37933   0.0190 313.1104 0001697 110.6962 300.1341  1.00271609 44734
BEIDOU-2 IGSO-5         
1 37948U 11073A   26155.64834352 -.00000161  00000+0  00000+0 0  9994
2 37948  47.7023 271.7026 0113306 221.7104  84.8230  1.00276059 53005
LUCH-5A                 
1 37951U 11074B   26156.09718957 -.00000039  00000+0  00000+0 0  9995
2 37951   8.7230  73.9855 0002482   9.1974  12.3602  1.00269911 52932
NIGCOMSAT 1R            
1 38014U 11077A   26156.14387850  .00000157  00000+0  00000+0 0  9999
2 38014   0.0263 211.5228 0002746 144.9799 351.3650  1.00270711 52832
WGS F4 (USA 233)        
1 38070U 12003A   26155.90025258  .00000000  00000+0  00000+0 0  9992
2 38070   0.0168 336.4588 0000174 330.3130 359.0853  1.00270873 44028
SES-4                   
1 38087U 12007A   26155.41810284 -.00000156  00000+0  00000+0 0  9994
2 38087   0.0283  31.0711 0002436  50.9462 299.3641  1.00271340 52093
BEIDOU-2 G5             
1 38091U 12008A   26156.14708519  .00000069  00000+0  00000+0 0  9990
2 38091   3.5438  69.7718 0009613 276.3406  19.1300  1.00269511 52243
MUOS-1                  
1 38093U 12009A   26156.16475302 -.00000117  00000+0  00000+0 0  9991
2 38093   5.4525  47.1655 0058910   0.8713 164.9199  1.00270872 52324
INTELSAT 22 (IS-22)     
1 38098U 12011A   26156.07846948 -.00000047  00000+0  00000+0 0  9999
2 38098   0.0117  41.3875 0001603  20.0852 292.3771  1.00273175  7064
APSTAR-7                
1 38107U 12013A   26156.15063853 -.00000089  00000+0  00000+0 0  9993
2 38107   0.0215  50.9502 0003012  31.9870 301.3799  1.00271537 51682
YAHSAT 1B               
1 38245U 12016A   26156.00224440  .00000139  00000+0  00000+0 0  9999
2 38245   0.0905  91.0834 0002774   2.7285 208.0398  1.00271155 45480
AEHF-2 (USA 235)        
1 38254U 12019A   26156.06081301 -.00000125  00000+0  00000+0 0  9991
2 38254   6.6237  57.5779 0002302   6.4666 194.8426  1.00270638  6864
JCSAT-13                
1 38331U 12023A   26155.73218999 -.00000344  00000+0  00000+0 0  9993
2 38331   0.0332  72.2498 0003007  20.0683 188.4436  1.00270076 51417
VINASAT-2               
1 38332U 12023B   26155.94762571 -.00000317  00000+0  00000+0 0  9997
2 38332   0.0141 355.1455 0002636  93.9674 277.2683  1.00270216 46532
NIMIQ 6                 
1 38342U 12026A   26156.04609792 -.00000162  00000+0  00000+0 0  9996
2 38342   0.0096 332.3393 0002920 100.5047 106.1356  1.00272659 50293
ZHONGXING-2A            
1 38352U 12028A   26156.18566959 -.00000281  00000+0  00000+0 0  9993
2 38352   1.4233  84.0383 0003653  31.2974 303.3656  1.00272293 51171
INTELSAT 19 (IS-19)     
1 38356U 12030A   26155.92420593 -.00000044  00000+0  00000+0 0  9991
2 38356   0.0187 344.8550 0003207  95.6741 311.5561  1.00272096 50325
ECHOSTAR 17             
1 38551U 12035A   26155.61246584  .00000000  00000+0  00000+0 0  9996
2 38551   0.0182 346.4449 0001986  87.1972 292.8078  1.00270627 50935
METEOSAT-10 (MSG-3)     
1 38552U 12035B   26156.06416942  .00000006  00000+0  00000+0 0  9990
2 38552   4.6426  61.0733 0001804 337.4560 238.2428  1.00275627 50732
SES-5                   
1 38652U 12036A   26155.99380595  .00000046  00000+0  00000+0 0  9991
2 38652   0.0499 310.6232 0002151 122.2129 183.3480  1.00271985 44337
INTELSAT 20 (IS-20)     
1 38740U 12043A   26155.83149853 -.00000012  00000+0  00000+0 0  9994
2 38740   0.0098  81.5762 0001553  96.2799  83.2508  1.00271341 50624
